FALCONSAT-6             
1 43815U 18099BK  26068.72544389  .00005029  00000+0  19477-3 0  9998
2 43815  97.3865 145.8165 0014370 297.0944 181.0714 15.26532865398556
STARLINK-31583          
1 59369U 24060X   26068.51830065  .00002698  00000+0  10758-3 0  9992
2 59369  43.0005 249.8313 0002144 287.1172  72.9444 15.27568547110164
