[{"OBJECT_NAME":"FALCONSAT-6","OBJECT_ID":"2018-099BK","EPOCH":"2026-03-09T17:24:38.352096","MEAN_MOTION":15.26532865,"ECCENTRICITY":0.00143698,"INCLINATION":97.3865,"RA_OF_ASC_NODE":145.8165,"ARG_OF_PERICENTER":297.0944,"MEAN_ANOMALY":181.0714,"EPHEMERIS_TYPE":0,"CLASSIFICATION_TYPE":"U","NORAD_CAT_ID":43815,"ELEMENT_SET_NO":999,"REV_AT_EPOCH":39855,"BSTAR":0.00019476898,"MEAN_MOTION_DOT":5.029e-5,"MEAN_MOTION_DDOT":0},{"OBJECT_NAME":"STARLINK-31583","OBJECT_ID":"2024-060X","EPOCH":"2026-03-09T12:26:21.176160","MEAN_MOTION":15.27568547,"ECCENTRICITY":0.00021447,"INCLINATION":43.0005,"RA_OF_ASC_NODE":249.8313,"ARG_OF_PERICENTER":287.1172,"MEAN_ANOMALY":72.9444,"EPHEMERIS_TYPE":0,"CLASSIFICATION_TYPE":"U","NORAD_CAT_ID":59369,"ELEMENT_SET_NO":999,"REV_AT_EPOCH":11016,"BSTAR":0.00010757897,"MEAN_MOTION_DOT":2.698e-5,"MEAN_MOTION_DDOT":0}]
